{"type": "FeatureCollection", "features": [{"type": "Feature", "properties": {"norad_id": 24876, "name": "GPS BIIR-2  (PRN 13)", "group": "gnss", "lat": 35.83390539110782, "lon": -103.60087071836021, "alt_km": 20122.42249641129, "timestamp": "2025-12-17T21:39:45.932344+00:00", "meta": {"OBJECT_NAME": "GPS BIIR-2  (PRN 13)", "OBJECT_ID": "1997-035A", "EPOCH": "2025-12-16T17:18:41.060448", "MEAN_MOTION": 2.00563709, "ECCENTRICITY": 0.00967839, "INCLINATION": 55.8971, "RA_OF_ASC_NODE": 105.7131, "ARG_OF_PERICENTER": 56.9876, "MEAN_ANOMALY": 303.9087, "EPHEMERIS_TYPE": 0, "CLASSIFICATION_TYPE": "U", "NORAD_CAT_ID": 24876, "ELEMENT_SET_NO": 999, "REV_AT_EPOCH": 20829, "BSTAR": 0, "MEAN_MOTION_DOT": -2.3e-07, "MEAN_MOTION_DDOT": 0}, "tle": {"line1": "1 24876U 97035A   25350.72130857 -.00000023  00000+0  00000+0 0  9993", "line2": "2 24876  55.8971 105.7131 0096783  56.9876 303.9087  2.00563709208299"}}, "geometry": {"type": "Point", "coordinates": [-103.60087071836021, 35.83390539110782]}}, {"type": "Feature", "properties": {"norad_id": 26360, "name": "GPS BIIR-4  (PRN 20)", "group": "gnss", "lat": -35.93329633031157, "lon": -122.91151396359784, "alt_km": 20087.051972699315, "timestamp": "2025-12-17T21:39:45.932393+00:00", "meta": {"OBJECT_NAME": "GPS BIIR-4  (PRN 20)", "OBJECT_ID": "2000-025A", "EPOCH": "2025-12-16T19:52:20.548704", "MEAN_MOTION": 2.00567475, "ECCENTRICITY": 0.00388903, "INCLINATION": 55.0476, "RA_OF_ASC_NODE": 26.6725, "ARG_OF_PERICENTER": 242.3816, "MEAN_ANOMALY": 287.5593, "EPHEMERIS_TYPE": 0, "CLASSIFICATION_TYPE": "U", "NORAD_CAT_ID": 26360, "ELEMENT_SET_NO": 999, "REV_AT_EPOCH": 18761, "BSTAR": 0, "MEAN_MOTION_DOT": -8.3e-07, "MEAN_MOTION_DDOT": 0}, "tle": {"line1": "1 26360U 00025A   25350.82801561 -.00000083  00000+0  00000+0 0  9990", "line2": "2 26360  55.0476  26.6725 0038890 242.3816 287.5593  2.00567475187616"}}, "geometry": {"type": "Point", "coordinates": [-122.91151396359784, -35.93329633031157]}}, {"type": "Feature", "properties": {"norad_id": 26407, "name": "GPS BIIR-5  (PRN 22)", "group": "gnss", "lat": 48.66461784571712, "lon": -84.56188666102989, "alt_km": 20362.908653649534, "timestamp": "2025-12-17T21:39:45.932409+00:00", "meta": {"OBJECT_NAME": "GPS BIIR-5  (PRN 22)", "OBJECT_ID": "2000-040A", "EPOCH": "2025-12-17T13:07:08.215968", "MEAN_MOTION": 2.00568099, "ECCENTRICITY": 0.0125756, "INCLINATION": 54.8897, "RA_OF_ASC_NODE": 222.3778, "ARG_OF_PERICENTER": 301.8897, "MEAN_ANOMALY": 226.5653, "EPHEMERIS_TYPE": 0, "CLASSIFICATION_TYPE": "U", "NORAD_CAT_ID": 26407, "ELEMENT_SET_NO": 999, "REV_AT_EPOCH": 18630, "BSTAR": 0, "MEAN_MOTION_DOT": 7.1e-07, "MEAN_MOTION_DDOT": 0}, "tle": {"line1": "1 26407U 00040A   25351.54662287  .00000071  00000+0  00000+0 0  9995", "line2": "2 26407  54.8897 222.3778 0125756 301.8897 226.5653  2.00568099186301"}}, "geometry": {"type": "Point", "coordinates": [-84.56188666102989, 48.66461784571712]}}, {"type": "Feature", "properties": {"norad_id": 27663, "name": "GPS BIIR-8  (PRN 16)", "group": "gnss", "lat": -18.044540243884242, "lon": 55.40848223019248, "alt_km": 20523.87348078839, "timestamp": "2025-12-17T21:39:45.932423+00:00", "meta": {"OBJECT_NAME": "GPS BIIR-8  (PRN 16)", "OBJECT_ID": "2003-005A", "EPOCH": "2025-12-17T15:19:29.390304", "MEAN_MOTION": 2.00570709, "ECCENTRICITY": 0.01476333, "INCLINATION": 54.9222, "RA_OF_ASC_NODE": 222.1834, "ARG_OF_PERICENTER": 51.8674, "MEAN_ANOMALY": 318.886, "EPHEMERIS_TYPE": 0, "CLASSIFICATION_TYPE": "U", "NORAD_CAT_ID": 27663, "ELEMENT_SET_NO": 999, "REV_AT_EPOCH": 16767, "BSTAR": 0, "MEAN_MOTION_DOT": 7.2e-07, "MEAN_MOTION_DDOT": 0}, "tle": {"line1": "1 27663U 03005A   25351.63853461  .00000072  00000+0  00000+0 0  9991", "line2": "2 27663  54.9222 222.1834 0147633  51.8674 318.8860  2.00570709167678"}}, "geometry": {"type": "Point", "coordinates": [55.40848223019248, -18.044540243884242]}}, {"type": "Feature", "properties": {"norad_id": 28190, "name": "GPS BIIR-11 (PRN 19)", "group": "gnss", "lat": -0.242254445795505, "lon": -77.1772752714081, "alt_km": 20464.558372545867, "timestamp": "2025-12-17T21:39:45.932435+00:00", "meta": {"OBJECT_NAME": "GPS BIIR-11 (PRN 19)", "OBJECT_ID": "2004-009A", "EPOCH": "2025-12-14T15:49:47.343936", "MEAN_MOTION": 2.00560762, "ECCENTRICITY": 0.01083648, "INCLINATION": 54.9839, "RA_OF_ASC_NODE": 283.1415, "ARG_OF_PERICENTER": 167.6892, "MEAN_ANOMALY": 10.6801, "EPHEMERIS_TYPE": 0, "CLASSIFICATION_TYPE": "U", "NORAD_CAT_ID": 28190, "ELEMENT_SET_NO": 999, "REV_AT_EPOCH": 15924, "BSTAR": 0, "MEAN_MOTION_DOT": -7.9e-07, "MEAN_MOTION_DDOT": 0}, "tle": {"line1": "1 28190U 04009A   25348.65957574 -.00000079  00000+0  00000+0 0  9998", "line2": "2 28190  54.9839 283.1415 0108364 167.6892  10.6801  2.00560762159240"}}, "geometry": {"type": "Point", "coordinates": [-77.1772752714081, -0.242254445795505]}}, {"type": "Feature", "properties": {"norad_id": 28474, "name": "GPS BIIR-13 (PRN 02)", "group": "gnss", "lat": 46.52549816556986, "lon": 19.27028144044073, "alt_km": 20344.956641505836, "timestamp": "2025-12-17T21:39:45.932449+00:00", "meta": {"OBJECT_NAME": "GPS BIIR-13 (PRN 02)", "OBJECT_ID": "2004-045A", "EPOCH": "2025-12-17T13:48:23.319360", "MEAN_MOTION": 2.00569852, "ECCENTRICITY": 0.01708441, "INCLINATION": 55.2383, "RA_OF_ASC_NODE": 332.2112, "ARG_OF_PERICENTER": 309.4586, "MEAN_ANOMALY": 234.4084, "EPHEMERIS_TYPE": 0, "CLASSIFICATION_TYPE": "U", "NORAD_CAT_ID": 28474, "ELEMENT_SET_NO": 999, "REV_AT_EPOCH": 15478, "BSTAR": 0, "MEAN_MOTION_DOT": -8.8e-07, "MEAN_MOTION_DDOT": 0}, "tle": {"line1": "1 28474U 04045A   25351.57526990 -.00000088  00000+0  00000+0 0  9992", "line2": "2 28474  55.2383 332.2112 0170844 309.4586 234.4084  2.00569852154783"}}, "geometry": {"type": "Point", "coordinates": [19.27028144044073, 46.52549816556986]}}, {"type": "Feature", "properties": {"norad_id": 28874, "name": "GPS BIIRM-1 (PRN 17)", "group": "gnss", "lat": 16.910697870783014, "lon": -67.25567722313762, "alt_km": 20156.445781654686, "timestamp": "2025-12-17T21:39:45.932463+00:00", "meta": {"OBJECT_NAME": "GPS BIIRM-1 (PRN 17)", "OBJECT_ID": "2005-038A", "EPOCH": "2025-12-15T21:22:37.236864", "MEAN_MOTION": 2.00578274, "ECCENTRICITY": 0.01315557, "INCLINATION": 55.0291, "RA_OF_ASC_NODE": 280.574, "ARG_OF_PERICENTER": 293.6034, "MEAN_ANOMALY": 72.8859, "EPHEMERIS_TYPE": 0, "CLASSIFICATION_TYPE": "U", "NORAD_CAT_ID": 28874, "ELEMENT_SET_NO": 999, "REV_AT_EPOCH": 14816, "BSTAR": 0, "MEAN_MOTION_DOT": -6.8e-07, "MEAN_MOTION_DDOT": 0}, "tle": {"line1": "1 28874U 05038A   25349.89070876 -.00000068  00000+0  00000+0 0  9996", "line2": "2 28874  55.0291 280.5740 0131555 293.6034  72.8859  2.00578274148160"}}, "geometry": {"type": "Point", "coordinates": [-67.25567722313762, 16.910697870783014]}}, {"type": "Feature", "properties": {"norad_id": 28899, "name": "INMARSAT 4-F2 (SOUTHPAN/PRN 122)", "group": "gnss", "lat": 2.308385092958869, "lon": -164.73010772203284, "alt_km": 35783.01987725194, "timestamp": "2025-12-17T21:39:45.932477+00:00", "meta": {"OBJECT_NAME": "INMARSAT 4-F2 (SOUTHPAN/PRN 122)", "OBJECT_ID": "2005-044A", "EPOCH": "2025-12-17T14:00:26.129664", "MEAN_MOTION": 1.00271261, "ECCENTRICITY": 0.00024945, "INCLINATION": 4.8582, "RA_OF_ASC_NODE": 43.7009, "ARG_OF_PERICENTER": 225.3737, "MEAN_ANOMALY": 170.9954, "EPHEMERIS_TYPE": 0, "CLASSIFICATION_TYPE": "U", "NORAD_CAT_ID": 28899, "ELEMENT_SET_NO": 999, "REV_AT_EPOCH": 7370, "BSTAR": 0, "MEAN_MOTION_DOT": -2.4e-06, "MEAN_MOTION_DDOT": 0}, "tle": {"line1": "1 28899U 05044A   25351.58363576 -.00000240  00000+0  00000+0 0  9993", "line2": "2 28899   4.8582  43.7009 0002494 225.3737 170.9954  1.00271261 73708"}}, "geometry": {"type": "Point", "coordinates": [-164.73010772203284, 2.308385092958869]}}, {"type": "Feature", "properties": {"norad_id": 29486, "name": "GPS BIIRM-2 (PRN 31)", "group": "gnss", "lat": -53.186213136574054, "lon": 87.21926098118499, "alt_km": 20374.12221971573, "timestamp": "2025-12-17T21:39:45.932489+00:00", "meta": {"OBJECT_NAME": "GPS BIIRM-2 (PRN 31)", "OBJECT_ID": "2006-042A", "EPOCH": "2025-12-16T18:24:54.505728", "MEAN_MOTION": 2.00554045, "ECCENTRICITY": 0.01073341, "INCLINATION": 54.6946, "RA_OF_ASC_NODE": 158.5809, "ARG_OF_PERICENTER": 52.0567, "MEAN_ANOMALY": 130.2096, "EPHEMERIS_TYPE": 0, "CLASSIFICATION_TYPE": "U", "NORAD_CAT_ID": 29486, "ELEMENT_SET_NO": 999, "REV_AT_EPOCH": 14073, "BSTAR": 0, "MEAN_MOTION_DOT": 8.7e-07, "MEAN_MOTION_DDOT": 0}, "tle": {"line1": "1 29486U 06042A   25350.76729752  .00000087  00000+0  00000+0 0  9994", "line2": "2 29486  54.6946 158.5809 0107334  52.0567 130.2096  2.00554045140735"}}, "geometry": {"type": "Point", "coordinates": [87.21926098118499, -53.186213136574054]}}, {"type": "Feature", "properties": {"norad_id": 29601, "name": "GPS BIIRM-3 (PRN 12)", "group": "gnss", "lat": -17.09789620667557, "lon": -151.248841195461, "alt_km": 20255.741121349434, "timestamp": "2025-12-17T21:39:45.932501+00:00", "meta": {"OBJECT_NAME": "GPS BIIRM-3 (PRN 12)", "OBJECT_ID": "2006-052A", "EPOCH": "2025-12-15T22:30:08.867232", "MEAN_MOTION": 2.00573827, "ECCENTRICITY": 0.00878265, "INCLINATION": 54.9699, "RA_OF_ASC_NODE": 221.2713, "ARG_OF_PERICENTER": 87.4673, "MEAN_ANOMALY": 273.6251, "EPHEMERIS_TYPE": 0, "CLASSIFICATION_TYPE": "U", "NORAD_CAT_ID": 29601, "ELEMENT_SET_NO": 999, "REV_AT_EPOCH": 13973, "BSTAR": 0, "MEAN_MOTION_DOT": 6e-07, "MEAN_MOTION_DDOT": 0}, "tle": {"line1": "1 29601U 06052A   25349.93760263  .00000060  00000+0  00000+0 0  9994", "line2": "2 29601  54.9699 221.2713 0087826  87.4673 273.6251  2.00573827139739"}}, "geometry": {"type": "Point", "coordinates": [-151.248841195461, -17.09789620667557]}}]}